<?xml version="1.0" encoding="UTF-8"?>
<kml xmlns="http://www.opengis.net/kml/2.2"><Document>
<name>HAB Flight 2 - search areas (Villadiego, Burgos)</name>
<description>Target: 2.13 m ORANGE parachute canopy + 0.70 m white EPS sphere. On the ground since 12 Aug 2026 21:12 UTC.</description>
<Style id="a50"><LineStyle><color>ff0000ff</color><width>3</width></LineStyle><PolyStyle><color>3d0000ff</color></PolyStyle></Style>
<Style id="a90"><LineStyle><color>ff00a5ff</color><width>2</width></LineStyle><PolyStyle><color>2600a5ff</color></PolyStyle></Style>
<Style id="bx"><LineStyle><color>ffffffff</color><width>2</width></LineStyle><PolyStyle><color>00ffffff</color></PolyStyle></Style>
<Style id="pt"><IconStyle><color>ff0000ff</color></IconStyle></Style>
<Placemark><name>ZONE A - 50% (SEARCH THIS)</name><description><![CDATA[zone: A<br/>confidence: 50%<br/>area_km2: 38<br/>radius_km: 3.5<br/>note: Primary search area. Landing ~21:12 UTC 12 Aug 2026, after dark, 2.4 m/s under canopy.<br/>]]></description><styleUrl>#a50</styleUrl><Polygon><tessellate>1</tessellate><outerBoundaryIs><LinearRing><coordinates>-3.8574,42.694126,0 -3.853669,42.694006,0 -3.849967,42.693648,0 -3.846322,42.693054,0 -3.84276,42.692228,0 -3.83931,42.691177,0 -3.835998,42.689909,0 -3.832849,42.688434,0 -3.829886,42.686762,0 -3.827133,42.684907,0 -3.82461,42.682883,0 -3.822337,42.680704,0 -3.820331,42.678388,0 -3.818606,42.675952,0 -3.817177,42.673415,0 -3.816054,42.670797,0 -3.815246,42.668116,0 -3.814759,42.665393,0 -3.814596,42.66265,0 -3.814759,42.659907,0 -3.815246,42.657184,0 -3.816054,42.654503,0 -3.817177,42.651885,0 -3.818606,42.649348,0 -3.820331,42.646912,0 -3.822337,42.644596,0 -3.82461,42.642417,0 -3.827133,42.640393,0 -3.829886,42.638538,0 -3.832849,42.636866,0 -3.835998,42.635391,0 -3.83931,42.634123,0 -3.84276,42.633072,0 -3.846322,42.632246,0 -3.849967,42.631652,0 -3.853669,42.631294,0 -3.8574,42.631174,0 -3.861131,42.631294,0 -3.864833,42.631652,0 -3.868478,42.632246,0 -3.87204,42.633072,0 -3.87549,42.634123,0 -3.878802,42.635391,0 -3.881951,42.636866,0 -3.884914,42.638538,0 -3.887667,42.640393,0 -3.89019,42.642417,0 -3.892463,42.644596,0 -3.894469,42.646912,0 -3.896194,42.649348,0 -3.897623,42.651885,0 -3.898746,42.654503,0 -3.899554,42.657184,0 -3.900041,42.659907,0 -3.900204,42.66265,0 -3.900041,42.665393,0 -3.899554,42.668116,0 -3.898746,42.670797,0 -3.897623,42.673415,0 -3.896194,42.675952,0 -3.894469,42.678388,0 -3.892463,42.680704,0 -3.89019,42.682883,0 -3.887667,42.684907,0 -3.884914,42.686762,0 -3.881951,42.688434,0 -3.878802,42.689909,0 -3.87549,42.691177,0 -3.87204,42.692228,0 -3.868478,42.693054,0 -3.864833,42.693648,0 -3.861131,42.694006,0 -3.8574,42.694126,0</coordinates></LinearRing></outerBoundaryIs></Polygon></Placemark>
<Placemark><name>ZONE A - 90%</name><description><![CDATA[zone: A<br/>confidence: 90%<br/>area_km2: 139<br/>radius_km: 6.7<br/>]]></description><styleUrl>#a90</styleUrl><Polygon><tessellate>1</tessellate><outerBoundaryIs><LinearRing><coordinates>-3.8574,42.722904,0 -3.850259,42.722675,0 -3.843171,42.721989,0 -3.836193,42.720851,0 -3.829375,42.719271,0 -3.822771,42.717259,0 -3.81643,42.714832,0 -3.810402,42.712008,0 -3.804731,42.708808,0 -3.79946,42.705256,0 -3.794631,42.701381,0 -3.790279,42.697211,0 -3.786439,42.692777,0 -3.783138,42.688115,0 -3.780402,42.683258,0 -3.778253,42.678245,0 -3.776706,42.673113,0 -3.775773,42.667902,0 -3.775461,42.66265,0 -3.775773,42.657398,0 -3.776706,42.652187,0 -3.778253,42.647055,0 -3.780402,42.642042,0 -3.783138,42.637185,0 -3.786439,42.632523,0 -3.790279,42.628089,0 -3.794631,42.623919,0 -3.79946,42.620044,0 -3.804731,42.616492,0 -3.810402,42.613292,0 -3.81643,42.610468,0 -3.822771,42.608041,0 -3.829375,42.606029,0 -3.836193,42.604449,0 -3.843171,42.603311,0 -3.850259,42.602625,0 -3.8574,42.602396,0 -3.864541,42.602625,0 -3.871629,42.603311,0 -3.878607,42.604449,0 -3.885425,42.606029,0 -3.892029,42.608041,0 -3.89837,42.610468,0 -3.904398,42.613292,0 -3.910069,42.616492,0 -3.91534,42.620044,0 -3.920169,42.623919,0 -3.924521,42.628089,0 -3.928361,42.632523,0 -3.931662,42.637185,0 -3.934398,42.642042,0 -3.936547,42.647055,0 -3.938094,42.652187,0 -3.939027,42.657398,0 -3.939339,42.66265,0 -3.939027,42.667902,0 -3.938094,42.673113,0 -3.936547,42.678245,0 -3.934398,42.683258,0 -3.931662,42.688115,0 -3.928361,42.692777,0 -3.924521,42.697211,0 -3.920169,42.701381,0 -3.91534,42.705256,0 -3.910069,42.708808,0 -3.904398,42.712008,0 -3.89837,42.714832,0 -3.892029,42.717259,0 -3.885425,42.719271,0 -3.878607,42.720851,0 -3.871629,42.721989,0 -3.864541,42.722675,0 -3.8574,42.722904,0</coordinates></LinearRing></outerBoundaryIs></Polygon></Placemark>
<Placemark><name>TASKING BOX - Zone A 50%</name><description><![CDATA[use: satellite tasking<br/>area_km2: 47.8<br/>note: Bounding box of the 38 km2 50% circle - order this, search the circle inside it.<br/>]]></description><styleUrl>#bx</styleUrl><Polygon><tessellate>1</tessellate><outerBoundaryIs><LinearRing><coordinates>-3.89968,42.63156,0 -3.81511,42.63156,0 -3.81511,42.69375,0 -3.89968,42.69375,0 -3.89968,42.63156,0</coordinates></LinearRing></outerBoundaryIs></Polygon></Placemark>
<Placemark><name>TASKING BOX - Zone A 90%</name><description><![CDATA[use: satellite tasking<br/>area_km2: 176.7<br/>note: Bounding box of the 139 km2 90% circle.<br/>]]></description><styleUrl>#bx</styleUrl><Polygon><tessellate>1</tessellate><outerBoundaryIs><LinearRing><coordinates>-3.93869,42.60287,0 -3.7761,42.60287,0 -3.7761,42.72243,0 -3.93869,42.72243,0 -3.93869,42.60287,0</coordinates></LinearRing></outerBoundaryIs></Polygon></Placemark>
<Placemark><name>ZONE B - 50% (outer bound only)</name><description><![CDATA[zone: B<br/>confidence: 50%<br/>area_km2: 77<br/>note: Requires BOTH termination systems to have failed. Do not search first.<br/>]]></description><styleUrl>#a50</styleUrl><Polygon><tessellate>1</tessellate><outerBoundaryIs><LinearRing><coordinates>-4.10652,42.719566,0 -4.10119,42.719395,0 -4.0959,42.718883,0 -4.090691,42.718034,0 -4.085602,42.716854,0 -4.080673,42.715353,0 -4.07594,42.713542,0 -4.07144,42.711434,0 -4.067207,42.709046,0 -4.063273,42.706396,0 -4.059668,42.703504,0 -4.05642,42.700391,0 -4.053554,42.697083,0 -4.05109,42.693603,0 -4.049048,42.689979,0 -4.047444,42.686238,0 -4.046289,42.682408,0 -4.045592,42.678519,0 -4.04536,42.6746,0 -4.045592,42.670681,0 -4.046289,42.666792,0 -4.047444,42.662962,0 -4.049048,42.659221,0 -4.05109,42.655597,0 -4.053554,42.652117,0 -4.05642,42.648809,0 -4.059668,42.645696,0 -4.063273,42.642804,0 -4.067207,42.640154,0 -4.07144,42.637766,0 -4.07594,42.635658,0 -4.080673,42.633847,0 -4.085602,42.632346,0 -4.090691,42.631166,0 -4.0959,42.630317,0 -4.10119,42.629805,0 -4.10652,42.629634,0 -4.11185,42.629805,0 -4.11714,42.630317,0 -4.122349,42.631166,0 -4.127438,42.632346,0 -4.132367,42.633847,0 -4.1371,42.635658,0 -4.1416,42.637766,0 -4.145833,42.640154,0 -4.149767,42.642804,0 -4.153372,42.645696,0 -4.15662,42.648809,0 -4.159486,42.652117,0 -4.16195,42.655597,0 -4.163992,42.659221,0 -4.165596,42.662962,0 -4.166751,42.666792,0 -4.167448,42.670681,0 -4.16768,42.6746,0 -4.167448,42.678519,0 -4.166751,42.682408,0 -4.165596,42.686238,0 -4.163992,42.689979,0 -4.16195,42.693603,0 -4.159486,42.697083,0 -4.15662,42.700391,0 -4.153372,42.703504,0 -4.149767,42.706396,0 -4.145833,42.709046,0 -4.1416,42.711434,0 -4.1371,42.713542,0 -4.132367,42.715353,0 -4.127438,42.716854,0 -4.122349,42.718034,0 -4.11714,42.718883,0 -4.11185,42.719395,0 -4.10652,42.719566,0</coordinates></LinearRing></outerBoundaryIs></Polygon></Placemark>
<Placemark><name>Zone A centre</name><description><![CDATA[role: aim point<br/>]]></description><styleUrl>#pt</styleUrl><Point><coordinates>-3.8574,42.66265,0</coordinates></Point></Placemark>
<Placemark><name>Zone B centre</name><description><![CDATA[role: contingency<br/>]]></description><styleUrl>#pt</styleUrl><Point><coordinates>-4.10652,42.6746,0</coordinates></Point></Placemark>
<Placemark><name>Launch site (Villadiego)</name><description><![CDATA[role: launch<br/>time_utc: 2026-08-12T18:23:00Z<br/>]]></description><styleUrl>#pt</styleUrl><Point><coordinates>-3.9754,42.52471,0</coordinates></Point></Placemark>
<Placemark><name>Last contact (ground point; balloon at 22,205 m)</name><description><![CDATA[role: last fix<br/>time_utc: 2026-08-12T19:22:11Z<br/>]]></description><styleUrl>#pt</styleUrl><Point><coordinates>-3.8484,42.57317,0</coordinates></Point></Placemark>
</Document></kml>