{
 "type": "FeatureCollection",
 "properties": {
  "title": "HAB Flight 2 search areas - Villadiego, Burgos",
  "target": "2.13 m ORANGE parachute canopy + 0.70 m white EPS sphere + 0.70 m carbon boom + Insta360",
  "on_ground_since": "2026-08-12T21:12:00Z",
  "valid_imagery": "any pass after 2026-08-12 21:00 UTC - the payload has not moved",
  "datum": "WGS84",
  "source": "Loss of HAB Flight 2 - Investigation Report; GFS-calibrated descent reconstruction"
 },
 "features": [
  {
   "type": "Feature",
   "properties": {
    "name": "ZONE A - 50% (SEARCH THIS)",
    "zone": "A",
    "confidence": "50%",
    "area_km2": 38,
    "radius_km": 3.5,
    "note": "Primary search area. Landing ~21:12 UTC 12 Aug 2026, after dark, 2.4 m/s under canopy."
   },
   "geometry": {
    "type": "Polygon",
    "coordinates": [
     [
      [
       -3.8574,
       42.694126
      ],
      [
       -3.853669,
       42.694006
      ],
      [
       -3.849967,
       42.693648
      ],
      [
       -3.846322,
       42.693054
      ],
      [
       -3.84276,
       42.692228
      ],
      [
       -3.83931,
       42.691177
      ],
      [
       -3.835998,
       42.689909
      ],
      [
       -3.832849,
       42.688434
      ],
      [
       -3.829886,
       42.686762
      ],
      [
       -3.827133,
       42.684907
      ],
      [
       -3.82461,
       42.682883
      ],
      [
       -3.822337,
       42.680704
      ],
      [
       -3.820331,
       42.678388
      ],
      [
       -3.818606,
       42.675952
      ],
      [
       -3.817177,
       42.673415
      ],
      [
       -3.816054,
       42.670797
      ],
      [
       -3.815246,
       42.668116
      ],
      [
       -3.814759,
       42.665393
      ],
      [
       -3.814596,
       42.66265
      ],
      [
       -3.814759,
       42.659907
      ],
      [
       -3.815246,
       42.657184
      ],
      [
       -3.816054,
       42.654503
      ],
      [
       -3.817177,
       42.651885
      ],
      [
       -3.818606,
       42.649348
      ],
      [
       -3.820331,
       42.646912
      ],
      [
       -3.822337,
       42.644596
      ],
      [
       -3.82461,
       42.642417
      ],
      [
       -3.827133,
       42.640393
      ],
      [
       -3.829886,
       42.638538
      ],
      [
       -3.832849,
       42.636866
      ],
      [
       -3.835998,
       42.635391
      ],
      [
       -3.83931,
       42.634123
      ],
      [
       -3.84276,
       42.633072
      ],
      [
       -3.846322,
       42.632246
      ],
      [
       -3.849967,
       42.631652
      ],
      [
       -3.853669,
       42.631294
      ],
      [
       -3.8574,
       42.631174
      ],
      [
       -3.861131,
       42.631294
      ],
      [
       -3.864833,
       42.631652
      ],
      [
       -3.868478,
       42.632246
      ],
      [
       -3.87204,
       42.633072
      ],
      [
       -3.87549,
       42.634123
      ],
      [
       -3.878802,
       42.635391
      ],
      [
       -3.881951,
       42.636866
      ],
      [
       -3.884914,
       42.638538
      ],
      [
       -3.887667,
       42.640393
      ],
      [
       -3.89019,
       42.642417
      ],
      [
       -3.892463,
       42.644596
      ],
      [
       -3.894469,
       42.646912
      ],
      [
       -3.896194,
       42.649348
      ],
      [
       -3.897623,
       42.651885
      ],
      [
       -3.898746,
       42.654503
      ],
      [
       -3.899554,
       42.657184
      ],
      [
       -3.900041,
       42.659907
      ],
      [
       -3.900204,
       42.66265
      ],
      [
       -3.900041,
       42.665393
      ],
      [
       -3.899554,
       42.668116
      ],
      [
       -3.898746,
       42.670797
      ],
      [
       -3.897623,
       42.673415
      ],
      [
       -3.896194,
       42.675952
      ],
      [
       -3.894469,
       42.678388
      ],
      [
       -3.892463,
       42.680704
      ],
      [
       -3.89019,
       42.682883
      ],
      [
       -3.887667,
       42.684907
      ],
      [
       -3.884914,
       42.686762
      ],
      [
       -3.881951,
       42.688434
      ],
      [
       -3.878802,
       42.689909
      ],
      [
       -3.87549,
       42.691177
      ],
      [
       -3.87204,
       42.692228
      ],
      [
       -3.868478,
       42.693054
      ],
      [
       -3.864833,
       42.693648
      ],
      [
       -3.861131,
       42.694006
      ],
      [
       -3.8574,
       42.694126
      ]
     ]
    ]
   }
  },
  {
   "type": "Feature",
   "properties": {
    "name": "ZONE A - 90%",
    "zone": "A",
    "confidence": "90%",
    "area_km2": 139,
    "radius_km": 6.7
   },
   "geometry": {
    "type": "Polygon",
    "coordinates": [
     [
      [
       -3.8574,
       42.722904
      ],
      [
       -3.850259,
       42.722675
      ],
      [
       -3.843171,
       42.721989
      ],
      [
       -3.836193,
       42.720851
      ],
      [
       -3.829375,
       42.719271
      ],
      [
       -3.822771,
       42.717259
      ],
      [
       -3.81643,
       42.714832
      ],
      [
       -3.810402,
       42.712008
      ],
      [
       -3.804731,
       42.708808
      ],
      [
       -3.79946,
       42.705256
      ],
      [
       -3.794631,
       42.701381
      ],
      [
       -3.790279,
       42.697211
      ],
      [
       -3.786439,
       42.692777
      ],
      [
       -3.783138,
       42.688115
      ],
      [
       -3.780402,
       42.683258
      ],
      [
       -3.778253,
       42.678245
      ],
      [
       -3.776706,
       42.673113
      ],
      [
       -3.775773,
       42.667902
      ],
      [
       -3.775461,
       42.66265
      ],
      [
       -3.775773,
       42.657398
      ],
      [
       -3.776706,
       42.652187
      ],
      [
       -3.778253,
       42.647055
      ],
      [
       -3.780402,
       42.642042
      ],
      [
       -3.783138,
       42.637185
      ],
      [
       -3.786439,
       42.632523
      ],
      [
       -3.790279,
       42.628089
      ],
      [
       -3.794631,
       42.623919
      ],
      [
       -3.79946,
       42.620044
      ],
      [
       -3.804731,
       42.616492
      ],
      [
       -3.810402,
       42.613292
      ],
      [
       -3.81643,
       42.610468
      ],
      [
       -3.822771,
       42.608041
      ],
      [
       -3.829375,
       42.606029
      ],
      [
       -3.836193,
       42.604449
      ],
      [
       -3.843171,
       42.603311
      ],
      [
       -3.850259,
       42.602625
      ],
      [
       -3.8574,
       42.602396
      ],
      [
       -3.864541,
       42.602625
      ],
      [
       -3.871629,
       42.603311
      ],
      [
       -3.878607,
       42.604449
      ],
      [
       -3.885425,
       42.606029
      ],
      [
       -3.892029,
       42.608041
      ],
      [
       -3.89837,
       42.610468
      ],
      [
       -3.904398,
       42.613292
      ],
      [
       -3.910069,
       42.616492
      ],
      [
       -3.91534,
       42.620044
      ],
      [
       -3.920169,
       42.623919
      ],
      [
       -3.924521,
       42.628089
      ],
      [
       -3.928361,
       42.632523
      ],
      [
       -3.931662,
       42.637185
      ],
      [
       -3.934398,
       42.642042
      ],
      [
       -3.936547,
       42.647055
      ],
      [
       -3.938094,
       42.652187
      ],
      [
       -3.939027,
       42.657398
      ],
      [
       -3.939339,
       42.66265
      ],
      [
       -3.939027,
       42.667902
      ],
      [
       -3.938094,
       42.673113
      ],
      [
       -3.936547,
       42.678245
      ],
      [
       -3.934398,
       42.683258
      ],
      [
       -3.931662,
       42.688115
      ],
      [
       -3.928361,
       42.692777
      ],
      [
       -3.924521,
       42.697211
      ],
      [
       -3.920169,
       42.701381
      ],
      [
       -3.91534,
       42.705256
      ],
      [
       -3.910069,
       42.708808
      ],
      [
       -3.904398,
       42.712008
      ],
      [
       -3.89837,
       42.714832
      ],
      [
       -3.892029,
       42.717259
      ],
      [
       -3.885425,
       42.719271
      ],
      [
       -3.878607,
       42.720851
      ],
      [
       -3.871629,
       42.721989
      ],
      [
       -3.864541,
       42.722675
      ],
      [
       -3.8574,
       42.722904
      ]
     ]
    ]
   }
  },
  {
   "type": "Feature",
   "properties": {
    "name": "TASKING BOX - Zone A 50%",
    "use": "satellite tasking",
    "area_km2": 47.8,
    "note": "Bounding box of the 38 km2 50% circle - order this, search the circle inside it."
   },
   "geometry": {
    "type": "Polygon",
    "coordinates": [
     [
      [
       -3.89968,
       42.63156
      ],
      [
       -3.81511,
       42.63156
      ],
      [
       -3.81511,
       42.69375
      ],
      [
       -3.89968,
       42.69375
      ],
      [
       -3.89968,
       42.63156
      ]
     ]
    ]
   }
  },
  {
   "type": "Feature",
   "properties": {
    "name": "TASKING BOX - Zone A 90%",
    "use": "satellite tasking",
    "area_km2": 176.7,
    "note": "Bounding box of the 139 km2 90% circle."
   },
   "geometry": {
    "type": "Polygon",
    "coordinates": [
     [
      [
       -3.93869,
       42.60287
      ],
      [
       -3.7761,
       42.60287
      ],
      [
       -3.7761,
       42.72243
      ],
      [
       -3.93869,
       42.72243
      ],
      [
       -3.93869,
       42.60287
      ]
     ]
    ]
   }
  },
  {
   "type": "Feature",
   "properties": {
    "name": "ZONE B - 50% (outer bound only)",
    "zone": "B",
    "confidence": "50%",
    "area_km2": 77,
    "note": "Requires BOTH termination systems to have failed. Do not search first."
   },
   "geometry": {
    "type": "Polygon",
    "coordinates": [
     [
      [
       -4.10652,
       42.719566
      ],
      [
       -4.10119,
       42.719395
      ],
      [
       -4.0959,
       42.718883
      ],
      [
       -4.090691,
       42.718034
      ],
      [
       -4.085602,
       42.716854
      ],
      [
       -4.080673,
       42.715353
      ],
      [
       -4.07594,
       42.713542
      ],
      [
       -4.07144,
       42.711434
      ],
      [
       -4.067207,
       42.709046
      ],
      [
       -4.063273,
       42.706396
      ],
      [
       -4.059668,
       42.703504
      ],
      [
       -4.05642,
       42.700391
      ],
      [
       -4.053554,
       42.697083
      ],
      [
       -4.05109,
       42.693603
      ],
      [
       -4.049048,
       42.689979
      ],
      [
       -4.047444,
       42.686238
      ],
      [
       -4.046289,
       42.682408
      ],
      [
       -4.045592,
       42.678519
      ],
      [
       -4.04536,
       42.6746
      ],
      [
       -4.045592,
       42.670681
      ],
      [
       -4.046289,
       42.666792
      ],
      [
       -4.047444,
       42.662962
      ],
      [
       -4.049048,
       42.659221
      ],
      [
       -4.05109,
       42.655597
      ],
      [
       -4.053554,
       42.652117
      ],
      [
       -4.05642,
       42.648809
      ],
      [
       -4.059668,
       42.645696
      ],
      [
       -4.063273,
       42.642804
      ],
      [
       -4.067207,
       42.640154
      ],
      [
       -4.07144,
       42.637766
      ],
      [
       -4.07594,
       42.635658
      ],
      [
       -4.080673,
       42.633847
      ],
      [
       -4.085602,
       42.632346
      ],
      [
       -4.090691,
       42.631166
      ],
      [
       -4.0959,
       42.630317
      ],
      [
       -4.10119,
       42.629805
      ],
      [
       -4.10652,
       42.629634
      ],
      [
       -4.11185,
       42.629805
      ],
      [
       -4.11714,
       42.630317
      ],
      [
       -4.122349,
       42.631166
      ],
      [
       -4.127438,
       42.632346
      ],
      [
       -4.132367,
       42.633847
      ],
      [
       -4.1371,
       42.635658
      ],
      [
       -4.1416,
       42.637766
      ],
      [
       -4.145833,
       42.640154
      ],
      [
       -4.149767,
       42.642804
      ],
      [
       -4.153372,
       42.645696
      ],
      [
       -4.15662,
       42.648809
      ],
      [
       -4.159486,
       42.652117
      ],
      [
       -4.16195,
       42.655597
      ],
      [
       -4.163992,
       42.659221
      ],
      [
       -4.165596,
       42.662962
      ],
      [
       -4.166751,
       42.666792
      ],
      [
       -4.167448,
       42.670681
      ],
      [
       -4.16768,
       42.6746
      ],
      [
       -4.167448,
       42.678519
      ],
      [
       -4.166751,
       42.682408
      ],
      [
       -4.165596,
       42.686238
      ],
      [
       -4.163992,
       42.689979
      ],
      [
       -4.16195,
       42.693603
      ],
      [
       -4.159486,
       42.697083
      ],
      [
       -4.15662,
       42.700391
      ],
      [
       -4.153372,
       42.703504
      ],
      [
       -4.149767,
       42.706396
      ],
      [
       -4.145833,
       42.709046
      ],
      [
       -4.1416,
       42.711434
      ],
      [
       -4.1371,
       42.713542
      ],
      [
       -4.132367,
       42.715353
      ],
      [
       -4.127438,
       42.716854
      ],
      [
       -4.122349,
       42.718034
      ],
      [
       -4.11714,
       42.718883
      ],
      [
       -4.11185,
       42.719395
      ],
      [
       -4.10652,
       42.719566
      ]
     ]
    ]
   }
  },
  {
   "type": "Feature",
   "properties": {
    "name": "Zone A centre",
    "role": "aim point"
   },
   "geometry": {
    "type": "Point",
    "coordinates": [
     -3.8574,
     42.66265
    ]
   }
  },
  {
   "type": "Feature",
   "properties": {
    "name": "Zone B centre",
    "role": "contingency"
   },
   "geometry": {
    "type": "Point",
    "coordinates": [
     -4.10652,
     42.6746
    ]
   }
  },
  {
   "type": "Feature",
   "properties": {
    "name": "Launch site (Villadiego)",
    "role": "launch",
    "time_utc": "2026-08-12T18:23:00Z"
   },
   "geometry": {
    "type": "Point",
    "coordinates": [
     -3.9754,
     42.52471
    ]
   }
  },
  {
   "type": "Feature",
   "properties": {
    "name": "Last contact (ground point; balloon at 22,205 m)",
    "role": "last fix",
    "time_utc": "2026-08-12T19:22:11Z"
   },
   "geometry": {
    "type": "Point",
    "coordinates": [
     -3.8484,
     42.57317
    ]
   }
  }
 ]
}